EARTHCARE               
1 59908U 24101A   24263.32365153  .00025542  00000+0  35547-3 0  9998
2 59908  96.9906  28.9819 0004554 114.9845 245.1885 15.56932317 17620
